[{"OBJECT_NAME":"FORMOSAT 7-3","OBJECT_ID":"2019-036E","EPOCH":"2026-03-09T19:49:52.754592","MEAN_MOTION":15.08933962,"ECCENTRICITY":0.00010606,"INCLINATION":23.9981,"RA_OF_ASC_NODE":141.9797,"ARG_OF_PERICENTER":150.4425,"MEAN_ANOMALY":209.6139,"EPHEMERIS_TYPE":0,"CLASSIFICATION_TYPE":"U","NORAD_CAT_ID":44343,"ELEMENT_SET_NO":999,"REV_AT_EPOCH":36821,"BSTAR":0.00037650049,"MEAN_MOTION_DOT":6.445e-5,"MEAN_MOTION_DDOT":0},{"OBJECT_NAME":"STARLINK-4514","OBJECT_ID":"2022-101AA","EPOCH":"2026-03-09T06:48:28.942848","MEAN_MOTION":15.08835407,"ECCENTRICITY":0.00014176,"INCLINATION":53.2183,"RA_OF_ASC_NODE":65.9443,"ARG_OF_PERICENTER":98.3097,"MEAN_ANOMALY":261.8056,"EPHEMERIS_TYPE":0,"CLASSIFICATION_TYPE":"U","NORAD_CAT_ID":53551,"ELEMENT_SET_NO":999,"REV_AT_EPOCH":19690,"BSTAR":-3.1370567e-5,"MEAN_MOTION_DOT":-7.87e-6,"MEAN_MOTION_DDOT":0}]
