FORMOSAT 7-3            
1 44343U 19036E   26068.82630502  .00006445  00000+0  37650-3 0  9997
2 44343  23.9981 141.9797 0001061 150.4425 209.6139 15.08933962368215
STARLINK-4514           
1 53551U 22101AA  26068.28366832 -.00000787  00000+0 -31371-4 0  9997
2 53551  53.2183  65.9443 0001417  98.3097 261.8056 15.08835407196907
